CBERS 4                 
1 40336U 14079A   20143.17862855 -.00000020  00000-0  84918-5 0  9997
2 40336  98.5623 215.0329 0001338 115.2973 244.8357 14.35412339285919
CZ-4B R/B               
1 40337U 14079B   20142.75267758  .00000210  00000-0  22882-4 0  9993
2 40337  98.4627  26.6105 0177570  35.7760 325.5199 14.89365224296421
